{
  "type": "FeatureCollection",
  "features": [
    {
      "type": "Feature",
      "properties": {
        "norad_id": 66793,
        "name": "STARLINK-36051",
        "group": "last-30-days",
        "lat": -11.412306746007566,
        "lon": 154.9353424417051,
        "alt_km": 416.0059661824089,
        "timestamp": "2025-12-26T21:25:51.733815+00:00",
        "meta_object_name": "STARLINK-36051",
        "meta_object_id": "2025-278C",
        "meta_epoch": "2025-12-26T14:00:04.000032",
        "meta_mean_motion": 15.50520677,
        "meta_eccentricity": 0.00015028,
        "meta_inclination": 42.9998,
        "meta_ra_of_asc_node": 169.2573,
        "meta_arg_of_pericenter": 260.7336,
        "meta_mean_anomaly": 152.3234,
        "meta_ephemeris_type": 0,
        "meta_classification_type": "U",
        "meta_norad_cat_id": 66793,
        "meta_element_set_no": 999,
        "meta_rev_at_epoch": 508,
        "meta_bstar": 0.0014185212,
        "meta_mean_motion_dot": 0.00083596,
        "meta_mean_motion_ddot": 0,
        "tle_line1": "1 66793U 25278C   25360.58337963  .00083596  00000+0  14185-2 0  9996",
        "tle_line2": "2 66793  42.9998 169.2573 0001502 260.7336 152.3234 15.50520677  5083"
      },
      "geometry": {
        "type": "Point",
        "coordinates": [
          154.9353424417051,
          -11.412306746007566
        ]
      }
    },
    {
      "type": "Feature",
      "properties": {
        "norad_id": 66794,
        "name": "STARLINK-36062",
        "group": "last-30-days",
        "lat": -12.625581860945355,
        "lon": 153.53902339057422,
        "alt_km": 415.5764116421042,
        "timestamp": "2025-12-26T21:25:51.733825+00:00",
        "meta_object_name": "STARLINK-36062",
        "meta_object_id": "2025-278D",
        "meta_epoch": "2025-12-26T12:14:09.237696",
        "meta_mean_motion": 15.50597285,
        "meta_eccentricity": 0.00019947,
        "meta_inclination": 42.999,
        "meta_ra_of_asc_node": 169.6901,
        "meta_arg_of_pericenter": 269.7082,
        "meta_mean_anomaly": 90.355,
        "meta_ephemeris_type": 0,
        "meta_classification_type": "U",
        "meta_norad_cat_id": 66794,
        "meta_element_set_no": 999,
        "meta_rev_at_epoch": 399,
        "meta_bstar": 0.0013293694,
        "meta_mean_motion_dot": 0.00078485,
        "meta_mean_motion_ddot": 0,
        "tle_line1": "1 66794U 25278D   25360.50982914  .00078485  00000+0  13294-2 0  9992",
        "tle_line2": "2 66794  42.9990 169.6901 0001994 269.7082  90.3550 15.50597285  3996"
      },
      "geometry": {
        "type": "Point",
        "coordinates": [
          153.53902339057422,
          -12.625581860945355
        ]
      }
    },
    {
      "type": "Feature",
      "properties": {
        "norad_id": 66795,
        "name": "STARLINK-36047",
        "group": "last-30-days",
        "lat": -27.568329020520444,
        "lon": 133.43771166621238,
        "alt_km": 441.44148449798104,
        "timestamp": "2025-12-26T21:25:51.733835+00:00",
        "meta_object_name": "STARLINK-36047",
        "meta_object_id": "2025-278E",
        "meta_epoch": "2025-12-26T14:00:04.000032",
        "meta_mean_motion": 15.43584603,
        "meta_eccentricity": 0.00018343,
        "meta_inclination": 43.0003,
        "meta_ra_of_asc_node": 169.3018,
        "meta_arg_of_pericenter": 251.2027,
        "meta_mean_anomaly": 144.452,
        "meta_ephemeris_type": 0,
        "meta_classification_type": "U",
        "meta_norad_cat_id": 66795,
        "meta_element_set_no": 999,
        "meta_rev_at_epoch": 508,
        "meta_bstar": -0.046124122,
        "meta_mean_motion_dot": -0.01903116,
        "meta_mean_motion_ddot": 0,
        "tle_line1": "1 66795U 25278E   25360.58337963 -.01903116  00000+0 -46124-1 0  9997",
        "tle_line2": "2 66795  43.0003 169.3018 0001834 251.2027 144.4520 15.43584603  5080"
      },
      "geometry": {
        "type": "Point",
        "coordinates": [
          133.43771166621238,
          -27.568329020520444
        ]
      }
    },
    {
      "type": "Feature",
      "properties": {
        "norad_id": 66796,
        "name": "STARLINK-35964",
        "group": "last-30-days",
        "lat": 13.21554990649772,
        "lon": -30.30559790425121,
        "alt_km": 324.21599409567625,
        "timestamp": "2025-12-26T21:25:51.733846+00:00",
        "meta_object_name": "STARLINK-35964",
        "meta_object_id": "2025-278F",
        "meta_epoch": "2025-12-26T11:39:39.747744",
        "meta_mean_motion": 15.81140199,
        "meta_eccentricity": 0.00027171,
        "meta_inclination": 42.9916,
        "meta_ra_of_asc_node": 166.7893,
        "meta_arg_of_pericenter": 253.8891,
        "meta_mean_anomaly": 106.1681,
        "meta_ephemeris_type": 0,
        "meta_classification_type": "U",
        "meta_norad_cat_id": 66796,
        "meta_element_set_no": 999,
        "meta_rev_at_epoch": 402,
        "meta_bstar": 0.0023432006,
        "meta_mean_motion_dot": 0.00501754,
        "meta_mean_motion_ddot": 0,
        "tle_line1": "1 66796U 25278F   25360.48587671  .00501754  00000+0  23432-2 0  9997",
        "tle_line2": "2 66796  42.9916 166.7893 0002717 253.8891 106.1681 15.81140199  4028"
      },
      "geometry": {
        "type": "Point",
        "coordinates": [
          -30.30559790425121,
          13.21554990649772
        ]
      }
    },
    {
      "type": "Feature",
      "properties": {
        "norad_id": 66797,
        "name": "STARLINK-36099",
        "group": "last-30-days",
        "lat": -7.5566649170103295,
        "lon": 159.24653365069267,
        "alt_km": 415.70717222601706,
        "timestamp": "2025-12-26T21:25:51.733856+00:00",
        "meta_object_name": "STARLINK-36099",
        "meta_object_id": "2025-278G",
        "meta_epoch": "2025-12-26T14:00:04.000032",
        "meta_mean_motion": 15.50534013,
        "meta_eccentricity": 0.00015726,
        "meta_inclination": 42.9999,
        "meta_ra_of_asc_node": 169.2422,
        "meta_arg_of_pericenter": 261.7908,
        "meta_mean_anomaly": 157.0183,
        "meta_ephemeris_type": 0,
        "meta_classification_type": "U",
        "meta_norad_cat_id": 66797,
        "meta_element_set_no": 999,
        "meta_rev_at_epoch": 524,
        "meta_bstar": 0.0006205025,
        "meta_mean_motion_dot": 0.0003617,
        "meta_mean_motion_ddot": 0,
        "tle_line1": "1 66797U 25278G   25360.58337963  .00036170  00000+0  62050-3 0  9991",
        "tle_line2": "2 66797  42.9999 169.2422 0001572 261.7908 157.0183 15.50534013  5246"
      },
      "geometry": {
        "type": "Point",
        "coordinates": [
          159.24653365069267,
          -7.5566649170103295
        ]
      }
    },
    {
      "type": "Feature",
      "properties": {
        "norad_id": 66798,
        "name": "STARLINK-36041",
        "group": "last-30-days",
        "lat": -6.263009129455224,
        "lon": 160.66226175242377,
        "alt_km": 415.5828419586269,
        "timestamp": "2025-12-26T21:25:51.733870+00:00",
        "meta_object_name": "STARLINK-36041",
        "meta_object_id": "2025-278H",
        "meta_epoch": "2025-12-26T14:00:04.000032",
        "meta_mean_motion": 15.50535813,
        "meta_eccentricity": 0.00015824,
        "meta_inclination": 42.9999,
        "meta_ra_of_asc_node": 169.2371,
        "meta_arg_of_pericenter": 261.9969,
        "meta_mean_anomaly": 158.7242,
        "meta_ephemeris_type": 0,
        "meta_classification_type": "U",
        "meta_norad_cat_id": 66798,
        "meta_element_set_no": 999,
        "meta_rev_at_epoch": 502,
        "meta_bstar": 0.00062238383,
        "meta_mean_motion_dot": 0.00036284,
        "meta_mean_motion_ddot": 0,
        "tle_line1": "1 66798U 25278H   25360.58337963  .00036284  00000+0  62238-3 0  9996",
        "tle_line2": "2 66798  42.9999 169.2371 0001582 261.9969 158.7242 15.50535813  5029"
      },
      "geometry": {
        "type": "Point",
        "coordinates": [
          160.66226175242377,
          -6.263009129455224
        ]
      }
    },
    {
      "type": "Feature",
      "properties": {
        "norad_id": 66799,
        "name": "STARLINK-36044",
        "group": "last-30-days",
        "lat": -4.964478802727966,
        "lon": 162.07394033844477,
        "alt_km": 415.45347669864805,
        "timestamp": "2025-12-26T21:25:51.733896+00:00",
        "meta_object_name": "STARLINK-36044",
        "meta_object_id": "2025-278J",
        "meta_epoch": "2025-12-26T14:00:04.000032",
        "meta_mean_motion": 15.50525355,
        "meta_eccentricity": 0.00014115,
        "meta_inclination": 42.9999,
        "meta_ra_of_asc_node": 169.2338,
        "meta_arg_of_pericenter": 262.8702,
        "meta_mean_anomaly": 159.7748,
        "meta_ephemeris_type": 0,
        "meta_classification_type": "U",
        "meta_norad_cat_id": 66799,
        "meta_element_set_no": 999,
        "meta_rev_at_epoch": 518,
        "meta_bstar": 0.00089120598,
        "meta_mean_motion_dot": 0.0005219,
        "meta_mean_motion_ddot": 0,
        "tle_line1": "1 66799U 25278J   25360.58337963  .00052190  00000+0  89121-3 0  9991",
        "tle_line2": "2 66799  42.9999 169.2338 0001411 262.8702 159.7748 15.50525355  5188"
      },
      "geometry": {
        "type": "Point",
        "coordinates": [
          162.07394033844477,
          -4.964478802727966
        ]
      }
    }
  ]
}